start=new Date('2022-04-15T00:00:00.000Z').valueOf();
sats=[{"OBJECT_NAME":"STARLINK-1792","RA_OF_ASC_NODE":"159.2970","MEAN_MOTION":"15.06396581","OBJECT_ID":"2020-073Z","MEAN_ANOMALY":"322.2893","MEAN_MOTION_DDOT":"0.0000000000000","NORAD_CAT_ID":"46693","INCLINATION":"53.0537","REF_FRAME":"TEME","MEAN_MOTION_DOT":"0.00001734","RCS_SIZE":"LARGE","GP_ID":"201256991","CENTER_NAME":"EARTH","LAUNCH_DATE":"2020-10-18","SITE":"AFETR","TLE_LINE2":"2 46693  53.0537 159.2970 0001986  37.8235 322.2893 15.06396581 82326","ARG_OF_PERICENTER":"37.8235","FILE":"3401977","ECCENTRICITY":"0.00019860","ELEMENT_SET_NO":"999","EPHEMERIS_TYPE":"0","PERIOD":"95.592","TIME_SYSTEM":"UTC","PERIAPSIS":"545.849","DECAY_DATE":null,"TLE_LINE1":"1 46693U 20073Z   22104.55540896  .00001734  00000-0  13533-3 0  9994","COUNTRY_CODE":"US","BSTAR":"0.00013533000000","REV_AT_EPOCH":"8232","OBJECT_TYPE":"PAYLOAD","EPOCH":"2022-04-14T13:19:47.334144","CLASSIFICATION_TYPE":"U","APOAPSIS":"548.599","MEAN_ELEMENT_THEORY":"SGP4","SEMIMAJOR_AXIS":"6925.359"},{"MEAN_ANOMALY":"248.9412","MEAN_MOTION_DDOT":"0.0000000000000","NORAD_CAT_ID":"46694","INCLINATION":"53.0529","RA_OF_ASC_NODE":"139.7942","OBJECT_NAME":"STARLINK-1793","MEAN_MOTION":"15.06408613","OBJECT_ID":"2020-073AA","LAUNCH_DATE":"2020-10-18","SITE":"AFETR","ARG_OF_PERICENTER":"111.1700","TLE_LINE2":"2 46694  53.0529 139.7942 0001157 111.1700 248.9412 15.06408613 82593","FILE":"3401567","REF_FRAME":"TEME","MEAN_MOTION_DOT":"0.00007294","RCS_SIZE":"LARGE","CENTER_NAME":"EARTH","GP_ID":"201224509","PERIAPSIS":"546.386","DECAY_DATE":null,"TLE_LINE1":"1 46694U 20073AA  22104.44668852  .00007294  00000-0  50794-3 0  9993","COUNTRY_CODE":"US","REV_AT_EPOCH":"8259","BSTAR":"0.00050794000000","ECCENTRICITY":"0.00011570","ELEMENT_SET_NO":"999","EPHEMERIS_TYPE":"0","PERIOD":"95.592","TIME_SYSTEM":"UTC","CLASSIFICATION_TYPE":"U","APOAPSIS":"547.988","MEAN_ELEMENT_THEORY":"SGP4","SEMIMAJOR_AXIS":"6925.322","OBJECT_TYPE":"PAYLOAD","EPOCH":"2022-04-14T10:43:13.888128"},{"OBJECT_TYPE":"PAYLOAD","EPOCH":"2022-04-14T19:07:28.024896","APOAPSIS":"548.660","MEAN_ELEMENT_THEORY":"SGP4","SEMIMAJOR_AXIS":"6925.269","CLASSIFICATION_TYPE":"U","EPHEMERIS_TYPE":"0","PERIOD":"95.590","TIME_SYSTEM":"UTC","ECCENTRICITY":"0.00022030","ELEMENT_SET_NO":"999","TLE_LINE1":"1 46696U 20073AC  22104.79685214  .00006487  00000-0  45367-3 0  9997","REV_AT_EPOCH":"8264","COUNTRY_CODE":"US","BSTAR":"0.00045367000000","PERIAPSIS":"545.608","DECAY_DATE":null,"RCS_SIZE":"LARGE","GP_ID":"201255990","CENTER_NAME":"EARTH","REF_FRAME":"TEME","MEAN_MOTION_DOT":"0.00006487","SITE":"AFETR","ARG_OF_PERICENTER":"41.7072","TLE_LINE2":"2 46696  53.0534 138.2104 0002203  41.7072 318.4084 15.06425991 82640","FILE":"3401977","LAUNCH_DATE":"2020-10-18","OBJECT_ID":"2020-073AC","MEAN_MOTION":"15.06425991","OBJECT_NAME":"STARLINK-1795","RA_OF_ASC_NODE":"138.2104","MEAN_MOTION_DDOT":"0.0000000000000","NORAD_CAT_ID":"46696","INCLINATION":"53.0534","MEAN_ANOMALY":"318.4084"},{"APOAPSIS":"548.351","MEAN_ELEMENT_THEORY":"SGP4","SEMIMAJOR_AXIS":"6925.314","CLASSIFICATION_TYPE":"U","OBJECT_TYPE":"PAYLOAD","EPOCH":"2022-04-14T20:29:44.143296","TLE_LINE1":"1 46698U 20073AE  22104.85398314  .00005314  00000-0  37527-3 0  9995","COUNTRY_CODE":"US","REV_AT_EPOCH":"8237","BSTAR":"0.00037527000000","PERIAPSIS":"546.007","DECAY_DATE":null,"EPHEMERIS_TYPE":"0","PERIOD":"95.591","TIME_SYSTEM":"UTC","ELEMENT_SET_NO":"999","ECCENTRICITY":"0.00016920","SITE":"AFETR","ARG_OF_PERICENTER":"60.1295","TLE_LINE2":"2 46698  53.0529 157.9510 0001692  60.1295 299.9862 15.06411351 82370","FILE":"3401977","LAUNCH_DATE":"2020-10-18","RCS_SIZE":"LARGE","GP_ID":"201256240","CENTER_NAME":"EARTH","REF_FRAME":"TEME","MEAN_MOTION_DOT":"0.00005314","MEAN_MOTION_DDOT":"0.0000000000000","NORAD_CAT_ID":"46698","INCLINATION":"53.0529","MEAN_ANOMALY":"299.9862","OBJECT_ID":"2020-073AE","OBJECT_NAME":"STARLINK-1797","MEAN_MOTION":"15.06411351","RA_OF_ASC_NODE":"157.9510"},{"REF_FRAME":"TEME","MEAN_MOTION_DOT":"0.00016217","RCS_SIZE":"LARGE","GP_ID":"201256497","CENTER_NAME":"EARTH","LAUNCH_DATE":"2020-10-18","SITE":"AFETR","ARG_OF_PERICENTER":"56.9427","TLE_LINE2":"2 46699  53.0524 157.9500 0001892  56.9427 303.1743 15.06430079 82371","FILE":"3401977","RA_OF_ASC_NODE":"157.9500","OBJECT_NAME":"STARLINK-1799","MEAN_MOTION":"15.06430079","OBJECT_ID":"2020-073AF","MEAN_ANOMALY":"303.1743","MEAN_MOTION_DDOT":"0.0000000000000","NORAD_CAT_ID":"46699","INCLINATION":"53.0524","OBJECT_TYPE":"PAYLOAD","EPOCH":"2022-04-14T20:35:03.302304","CLASSIFICATION_TYPE":"U","MEAN_ELEMENT_THEORY":"SGP4","APOAPSIS":"548.432","SEMIMAJOR_AXIS":"6925.256","ELEMENT_SET_NO":"999","ECCENTRICITY":"0.00018920","EPHEMERIS_TYPE":"0","PERIOD":"95.590","TIME_SYSTEM":"UTC","PERIAPSIS":"545.811","DECAY_DATE":null,"TLE_LINE1":"1 46699U 20073AF  22104.85767711  .00016217  00000-0  11042-2 0  9994","REV_AT_EPOCH":"8237","COUNTRY_CODE":"US","BSTAR":"0.00110420000000"},{"MEAN_MOTION":"15.06405981","OBJECT_NAME":"STARLINK-1800","RA_OF_ASC_NODE":"192.5746","OBJECT_ID":"2020-073AG","MEAN_ANOMALY":"284.6834","NORAD_CAT_ID":"46700","INCLINATION":"53.0575","MEAN_MOTION_DDOT":"0.0000000000000","MEAN_MOTION_DOT":"0.00004091","REF_FRAME":"TEME","GP_ID":"200908824","CENTER_NAME":"EARTH","RCS_SIZE":"LARGE","LAUNCH_DATE":"2020-10-18","FILE":"3396223","SITE":"AFETR","ARG_OF_PERICENTER":"75.4357","TLE_LINE2":"2 46700  53.0575 192.5746 0001826  75.4357 284.6834 15.06405981 81504","ELEMENT_SET_NO":"999","ECCENTRICITY":"0.00018260","PERIOD":"95.592","TIME_SYSTEM":"UTC","EPHEMERIS_TYPE":"0","DECAY_DATE":null,"PERIAPSIS":"545.931","TLE_LINE1":"1 46700U 20073AG  22100.48291040  .00004091  00000-0  29332-3 0  9998","COUNTRY_CODE":"US","BSTAR":"0.00029332000000","REV_AT_EPOCH":"8150","OBJECT_TYPE":"PAYLOAD","EPOCH":"2022-04-10T11:35:23.458560","CLASSIFICATION_TYPE":"U","SEMIMAJOR_AXIS":"6925.330","MEAN_ELEMENT_THEORY":"SGP4","APOAPSIS":"548.460"},{"MEAN_MOTION":"15.06419528","OBJECT_NAME":"STARLINK-1801","RA_OF_ASC_NODE":"158.9726","OBJECT_ID":"2020-073AH","MEAN_ANOMALY":"312.4086","MEAN_MOTION_DDOT":"0.0000000000000","NORAD_CAT_ID":"46701","INCLINATION":"53.0556","REF_FRAME":"TEME","MEAN_MOTION_DOT":"0.00008351","RCS_SIZE":"LARGE","CENTER_NAME":"EARTH","GP_ID":"201255496","LAUNCH_DATE":"2020-10-18","SITE":"AFETR","TLE_LINE2":"2 46701  53.0556 158.9726 0001950  47.7068 312.4086 15.06419528 82341","ARG_OF_PERICENTER":"47.7068","FILE":"3401977","ECCENTRICITY":"0.00019500","ELEMENT_SET_NO":"999","EPHEMERIS_TYPE":"0","PERIOD":"95.591","TIME_SYSTEM":"UTC","PERIAPSIS":"545.803","DECAY_DATE":null,"TLE_LINE1":"1 46701U 20073AH  22104.62914123  .00008351  00000-0  57856-3 0  9998","BSTAR":"0.00057856000000","COUNTRY_CODE":"US","REV_AT_EPOCH":"8234","OBJECT_TYPE":"PAYLOAD","EPOCH":"2022-04-14T15:05:57.802272","CLASSIFICATION_TYPE":"U","APOAPSIS":"548.504","MEAN_ELEMENT_THEORY":"SGP4","SEMIMAJOR_AXIS":"6925.289"},{"OBJECT_TYPE":"PAYLOAD","EPOCH":"2022-04-14T09:02:23.073216","APOAPSIS":"548.488","MEAN_ELEMENT_THEORY":"SGP4","SEMIMAJOR_AXIS":"6925.368","CLASSIFICATION_TYPE":"U","EPHEMERIS_TYPE":"0","PERIOD":"95.593","TIME_SYSTEM":"UTC","ELEMENT_SET_NO":"999","ECCENTRICITY":"0.00018120","TLE_LINE1":"1 46702U 20073AJ  22104.37665594  .00003208  00000-0  23421-3 0  9993","BSTAR":"0.00023421000000","COUNTRY_CODE":"US","REV_AT_EPOCH":"8258","PERIAPSIS":"545.978","DECAY_DATE":null,"RCS_SIZE":"LARGE","CENTER_NAME":"EARTH","GP_ID":"201223007","REF_FRAME":"TEME","MEAN_MOTION_DOT":"0.00003208","SITE":"AFETR","TLE_LINE2":"2 46702  53.0538 140.1058 0001812  49.3492 310.7655 15.06393679 82586","ARG_OF_PERICENTER":"49.3492","FILE":"3401567","LAUNCH_DATE":"2020-10-18","OBJECT_ID":"2020-073AJ","OBJECT_NAME":"STARLINK-1802","MEAN_MOTION":"15.06393679","RA_OF_ASC_NODE":"140.1058","MEAN_MOTION_DDOT":"0.0000000000000","NORAD_CAT_ID":"46702","INCLINATION":"53.0538","MEAN_ANOMALY":"310.7655"},{"OBJECT_ID":"2020-073AK","OBJECT_NAME":"STARLINK-1803","RA_OF_ASC_NODE":"157.8650","MEAN_MOTION":"15.06421690","MEAN_MOTION_DDOT":"0.0000000000000","NORAD_CAT_ID":"46703","INCLINATION":"53.0524","MEAN_ANOMALY":"306.4870","RCS_SIZE":"LARGE","CENTER_NAME":"EARTH","GP_ID":"201256992","REF_FRAME":"TEME","MEAN_MOTION_DOT":"0.00007628","SITE":"AFETR","TLE_LINE2":"2 46703  53.0524 157.8650 0001821  53.6286 306.4870 15.06421690 82377","ARG_OF_PERICENTER":"53.6286","FILE":"3401977","LAUNCH_DATE":"2020-10-18","EPHEMERIS_TYPE":"0","PERIOD":"95.591","TIME_SYSTEM":"UTC","ECCENTRICITY":"0.00018210","ELEMENT_SET_NO":"999","TLE_LINE1":"1 46703U 20073AK  22104.87239977  .00007628  00000-0  53015-3 0  9993","BSTAR":"0.00053015000000","COUNTRY_CODE":"US","REV_AT_EPOCH":"8237","PERIAPSIS":"545.886","DECAY_DATE":null,"OBJECT_TYPE":"PAYLOAD","EPOCH":"2022-04-14T20:56:15.340128","APOAPSIS":"548.408","MEAN_ELEMENT_THEORY":"SGP4","SEMIMAJOR_AXIS":"6925.282","CLASSIFICATION_TYPE":"U"},{"FILE":"3401734","SITE":"AFETR","TLE_LINE2":"2 46704  53.0530 138.2653 0001764  57.5356 302.5803 15.06407763 83120","ARG_OF_PERICENTER":"57.5356","LAUNCH_DATE":"2020-10-18","CENTER_NAME":"EARTH","GP_ID":"201231078","RCS_SIZE":"LARGE","MEAN_MOTION_DOT":"0.00006465","REF_FRAME":"TEME","NORAD_CAT_ID":"46704","INCLINATION":"53.0530","MEAN_MOTION_DDOT":"0.0000000000000","MEAN_ANOMALY":"302.5803","OBJECT_ID":"2020-073AL","OBJECT_NAME":"STARLINK-1804","RA_OF_ASC_NODE":"138.2653","MEAN_MOTION":"15.06407763","SEMIMAJOR_AXIS":"6925.325","MEAN_ELEMENT_THEORY":"SGP4","APOAPSIS":"548.411","CLASSIFICATION_TYPE":"U","OBJECT_TYPE":"PAYLOAD","EPOCH":"2022-04-14T18:51:32.747616","TLE_LINE1":"1 46704U 20073AL  22104.78579569  .00006465  00000-0  45243-3 0  9990","COUNTRY_CODE":"US","REV_AT_EPOCH":"8312","BSTAR":"0.00045243000000","DECAY_DATE":null,"PERIAPSIS":"545.968","PERIOD":"95.592","TIME_SYSTEM":"UTC","EPHEMERIS_TYPE":"0","ELEMENT_SET_NO":"999","ECCENTRICITY":"0.00017640"}];
